0 COSMOS 1823 DEB
1 18730U 87020H   13282.54132573  .00000358  00000-0  37258-2 0  9311
2 18730 073.9324 315.5570 0182263 030.5282 138.4522 12.13076260142883
0 COSMOS 1823 DEB
1 18730U 87020H   13284.07692431  .00000448  00000-0  46285-2 0  9326
2 18730 073.9323 313.6415 0182343 028.3629 004.5601 12.13075986143075
0 COSMOS 1823 DEB
1 18730U 87020H   13286.49574542  .00000421  00000-0  43631-2 0  9341
2 18730 073.9320 310.6242 0182504 024.9469 127.7843 12.13077119143368
0 COSMOS 1823 DEB
1 18730U 87020H   13287.55969836  .00000336  00000-0  35094-2 0  9353
2 18730 073.9320 309.2967 0182578 023.4475 094.1657 12.13078172143492
0 COSMOS 1823 DEB
1 18730U 87020H   13288.79489711  .00000237  00000-0  25155-2 0  9367
2 18730 073.9320 307.7556 0182666 021.7116 088.3931 12.13079885143649
0 COSMOS 1823 DEB
1 18730U 87020H   13290.10161057  .00000086  00000-0  10081-2 0  9370
2 18730 073.9321 306.1252 0182740 019.8878 034.9241 12.13081580143806
0 COSMOS 1823 DEB
1 18730U 87020H   13291.17653696 -.00000045  00000-0 -30713-3 0  9386
2 18730 073.9321 304.7841 0182807 018.3857 049.2274 12.13082560143937
0 COSMOS 1823 DEB
1 18730U 87020H   13292.75333516 -.00000180  00000-0 -16537-2 0  9395
2 18730 073.9322 302.8172 0182949 016.1799 095.2616 12.13083455144129
0 COSMOS 1823 DEB
1 18730U 87020H   13294.14500137 -.00000258  00000-0 -24408-2 0  9409
2 18730 073.9322 301.0811 0183066 014.2399 052.8044 12.13083694144293
0 COSMOS 1823 DEB
1 18730U 87020H   13295.48454087 -.00000265  00000-0 -25099-2 0  9415
2 18730 073.9321 299.4102 0183177 012.3785 142.7025 12.13083118144453
